QIANFAN-33              
1 61566U 24185Q   26009.27422450  .00000380  00000+0  26486-3 0  9996
2 61566  88.9780  75.7424 0005606 225.9399 134.1316 13.96579124 73007
QIANFAN-34              
1 61567U 24185R   26009.26942519  .00000393  00000+0  24772-3 0  9999
2 61567  88.9758  75.2701 0004298 230.7586 129.3213 14.02334910 73219
QIANFAN-35              
1 61568U 24185S   26009.23618655  .00000825  00000+0  32659-3 0  9991
2 61568  88.9781  73.6558 0006633 175.8217 184.3034 14.28023088 74103
QIANFAN-36              
1 61569U 24185T   26009.27370301  .00000183  00000+0  24584-3 0  9994
2 61569  88.9767  78.1810 0004737 338.6172  21.4783 13.55598302 71655
QIANFAN-37              
1 62238U 24232B   26009.32224144  .00000037  00000+0  38847-4 0  9996
2 62238  88.9998  38.5429 0002231  77.5526 282.5875 13.50982193102893
QIANFAN-38              
1 62239U 24232C   26009.27288705  .00000034  00000+0  33935-4 0  9994
2 62239  89.0005  38.4655 0016412 113.3594 246.9286 13.50980032102941
QIANFAN-39              
1 62240U 24232D   26009.29316765  .00000148  00000+0  56604-4 0  9990
2 62240  88.9998  34.1553 0015762 356.8914   3.2179 14.25410368105311
QIANFAN-40              
1 62241U 24232E   26009.30580512  .00000025  00000+0  20641-4 0  9992
2 62241  89.0032  38.0543 0015340 120.1519 240.1155 13.50980092103317
